0 FENGYUN 1C DEB
1 30318U 99025AAF 13282.46250328  .00012888  00000-0  47268-2 0  4650
2 30318 098.9871 344.3588 0050313 056.7225 069.5742 14.32193097349034
0 FENGYUN 1C DEB
1 30318U 99025AAF 13283.43960242  .00012081  00000-0  44318-2 0  4660
2 30318 098.9873 345.3708 0050119 053.7394 067.5526 14.32207810349171
0 FENGYUN 1C DEB
1 30318U 99025AAF 13286.84988477  .00009606  00000-0  35257-2 0  4681
2 30318 098.9887 348.9038 0049588 043.3066 011.6370 14.32262935349659
0 FENGYUN 1C DEB
1 30318U 99025AAF 13288.11087155  .00016340  00000-0  59763-2 0  4698
2 30318 098.9888 350.2103 0049422 039.3906 033.7746 14.32293745349839
0 FENGYUN 1C DEB
1 30318U 99025AAF 13289.44738412  .00013267  00000-0  48553-2 0  4706
2 30318 098.9886 351.5955 0049241 035.2980 085.4604 14.32323368350038
0 FENGYUN 1C DEB
1 30318U 99025AAF 13291.47526220  .00011861  00000-0  43404-2 0  4713
2 30318 098.9880 353.6971 0049013 028.9941 102.5003 14.32365573350326
0 FENGYUN 1C DEB
1 30318U 99025AAF 13293.49916509  .00011969  00000-0  43768-2 0  4723
2 30318 098.9875 355.7943 0048852 022.6898 099.3554 14.32404166350612
0 FENGYUN 1C DEB
1 30318U 99025AAF 13295.86755005  .00013542  00000-0  49444-2 0  4735
2 30318 098.9871 358.2483 0048727 015.2886 073.0198 14.32450240350944
